{"fetched_at":"2026-07-09T18:16:44.959Z","source":"https://celestrak.org/NORAD/elements/gp.php?GROUP=planet&FORMAT=JSON","constellation":"pelican","records":[{"OBJECT_NAME":"PELICAN-1","OBJECT_ID":"2023-174AS","EPOCH":"2026-07-07T05:27:12.727296","CLASSIFICATION_TYPE":"U","MEAN_MOTION":15.72538596,"ECCENTRICITY":0.00047499,"INCLINATION":97.3953,"RA_OF_ASC_NODE":289.8222,"ARG_OF_PERICENTER":148.5978,"MEAN_ANOMALY":211.557,"EPHEMERIS_TYPE":0,"NORAD_CAT_ID":58296,"ELEMENT_SET_NO":999,"REV_AT_EPOCH":14931,"BSTAR":0.000054763225,"MEAN_MOTION_DOT":0.00007175,"MEAN_MOTION_DDOT":0},{"OBJECT_NAME":"PELICAN-2","OBJECT_ID":"2025-009Y","EPOCH":"2026-07-08T19:17:15.869760","CLASSIFICATION_TYPE":"U","MEAN_MOTION":15.40629492,"ECCENTRICITY":0.00022323,"INCLINATION":97.2224,"RA_OF_ASC_NODE":280.4404,"ARG_OF_PERICENTER":115.5615,"MEAN_ANOMALY":244.5863,"EPHEMERIS_TYPE":0,"NORAD_CAT_ID":62631,"ELEMENT_SET_NO":999,"REV_AT_EPOCH":8288,"BSTAR":0.000002125146,"MEAN_MOTION_DOT":6e-8,"MEAN_MOTION_DDOT":0},{"OBJECT_NAME":"PELICAN-3","OBJECT_ID":"2025-188A","EPOCH":"2026-07-08T17:42:35.798976","CLASSIFICATION_TYPE":"U","MEAN_MOTION":15.40970528,"ECCENTRICITY":0.00017039,"INCLINATION":97.198,"RA_OF_ASC_NODE":265.5663,"ARG_OF_PERICENTER":106.1486,"MEAN_ANOMALY":253.9949,"EPHEMERIS_TYPE":0,"NORAD_CAT_ID":65315,"ELEMENT_SET_NO":999,"REV_AT_EPOCH":4863,"BSTAR":0.0001368113,"MEAN_MOTION_DOT":0.00005552,"MEAN_MOTION_DDOT":0},{"OBJECT_NAME":"PELICAN-4","OBJECT_ID":"2025-188B","EPOCH":"2026-07-08T18:07:38.710560","CLASSIFICATION_TYPE":"U","MEAN_MOTION":15.40939446,"ECCENTRICITY":0.00008688,"INCLINATION":97.1994,"RA_OF_ASC_NODE":265.7385,"ARG_OF_PERICENTER":107.0071,"MEAN_ANOMALY":253.1271,"EPHEMERIS_TYPE":0,"NORAD_CAT_ID":65316,"ELEMENT_SET_NO":999,"REV_AT_EPOCH":4863,"BSTAR":0.00014835008,"MEAN_MOTION_DOT":0.00006021,"MEAN_MOTION_DDOT":0},{"OBJECT_NAME":"PELICAN-5","OBJECT_ID":"2025-276B","EPOCH":"2026-07-08T10:44:47.555232","CLASSIFICATION_TYPE":"U","MEAN_MOTION":15.31764598,"ECCENTRICITY":0.00024223,"INCLINATION":97.4121,"RA_OF_ASC_NODE":264.4094,"ARG_OF_PERICENTER":352.7008,"MEAN_ANOMALY":7.4198,"EPHEMERIS_TYPE":0,"NORAD_CAT_ID":66667,"ELEMENT_SET_NO":999,"REV_AT_EPOCH":3377,"BSTAR":0.00012746571,"MEAN_MOTION_DOT":0.00003831,"MEAN_MOTION_DDOT":0},{"OBJECT_NAME":"PELICAN-6","OBJECT_ID":"2025-276AP","EPOCH":"2026-07-08T18:29:17.236896","CLASSIFICATION_TYPE":"U","MEAN_MOTION":15.31077896,"ECCENTRICITY":0.00032361,"INCLINATION":97.3784,"RA_OF_ASC_NODE":264.7842,"ARG_OF_PERICENTER":48.6984,"MEAN_ANOMALY":311.4536,"EPHEMERIS_TYPE":0,"NORAD_CAT_ID":66703,"ELEMENT_SET_NO":999,"REV_AT_EPOCH":3383,"BSTAR":0.00010638544,"MEAN_MOTION_DOT":0.00003117,"MEAN_MOTION_DDOT":0},{"OBJECT_NAME":"PELICAN-7","OBJECT_ID":"2026-100AP","EPOCH":"2026-07-08T16:36:52.687872","CLASSIFICATION_TYPE":"U","MEAN_MOTION":15.23481001,"ECCENTRICITY":0.00033143,"INCLINATION":97.3907,"RA_OF_ASC_NODE":87.2405,"ARG_OF_PERICENTER":94.4001,"MEAN_ANOMALY":265.7614,"EPHEMERIS_TYPE":0,"NORAD_CAT_ID":69017,"ELEMENT_SET_NO":999,"REV_AT_EPOCH":1008,"BSTAR":0.000063924856,"MEAN_MOTION_DOT":0.00001454,"MEAN_MOTION_DDOT":0},{"OBJECT_NAME":"PELICAN-9","OBJECT_ID":"2026-100AR","EPOCH":"2026-07-08T15:54:55.321920","CLASSIFICATION_TYPE":"U","MEAN_MOTION":15.21752407,"ECCENTRICITY":0.00023316,"INCLINATION":97.3789,"RA_OF_ASC_NODE":87.0631,"ARG_OF_PERICENTER":8.9138,"MEAN_ANOMALY":351.2139,"EPHEMERIS_TYPE":0,"NORAD_CAT_ID":69019,"ELEMENT_SET_NO":999,"REV_AT_EPOCH":1007,"BSTAR":0.000068429475,"MEAN_MOTION_DOT":0.00001482,"MEAN_MOTION_DDOT":0}]}
