PELICAN-1               
1 58296U 23174AS  26188.22723064  .00007175  00000+0  54763-4 0  9996
2 58296  97.3953 289.8222 0004749 148.5978 211.5570 15.72538596149317
PELICAN-2               
1 62631U 25009Y   26189.80365590  .00000006  00000+0  21251-5 0  9997
2 62631  97.2224 280.4404 0002232 115.5615 244.5863 15.40629492 82881
PELICAN-3               
1 65315U 25188A   26189.73791434  .00005552  00000+0  13681-3 0  9996
2 65315  97.1980 265.5663 0001703 106.1486 253.9949 15.40970528 48639
PELICAN-4               
1 65316U 25188B   26189.75530915  .00006021  00000+0  14835-3 0  9998
2 65316  97.1994 265.7385 0000868 107.0071 253.1271 15.40939446 48633
PELICAN-5               
1 66667U 25276B   26189.44777263  .00003831  00000+0  12747-3 0  9997
2 66667  97.4121 264.4094 0002422 352.7008   7.4198 15.31764598 33779
PELICAN-6               
1 66703U 25276AP  26189.77033839  .00003117  00000+0  10639-3 0  9993
2 66703  97.3784 264.7842 0003236  48.6984 311.4536 15.31077896 33835
PELICAN-7               
1 69017U 26100AP  26189.69227648  .00001454  00000+0  63925-4 0  9994
2 69017  97.3907  87.2405 0003314  94.4001 265.7614 15.23481001 10080
PELICAN-9               
1 69019U 26100AR  26189.66314030  .00001482  00000+0  68429-4 0  9990
2 69019  97.3789  87.0631 0002331   8.9138 351.2139 15.21752407 10079
